start=new Date('2023-04-10T00:00:00.000Z').valueOf();
sats=[{"MEAN_ELEMENT_THEORY":"SGP4","PERIOD":"95.919","MEAN_MOTION_DOT":"0.00001417","FILE":"3884641","ELEMENT_SET_NO":"999","TIME_SYSTEM":"UTC","SEMIMAJOR_AXIS":"6941.130","EPOCH":"2023-04-09T21:33:56.952576","RA_OF_ASC_NODE":"161.9459","DECAY_DATE":null,"LAUNCH_DATE":"2022-07-22","OBJECT_NAME":"STARLINK-4379","BSTAR":"0.00011490000000","NORAD_CAT_ID":"53217","GP_ID":"229809342","REV_AT_EPOCH":"3956","MEAN_MOTION_DDOT":"0.0000000000000","INCLINATION":"97.6548","ECCENTRICITY":"0.00016450","MEAN_ANOMALY":"257.2173","RCS_SIZE":"LARGE","REF_FRAME":"TEME","OBJECT_ID":"2022-084AE","APOAPSIS":"564.137","ARG_OF_PERICENTER":"102.9235","PERIAPSIS":"561.853","OBJECT_TYPE":"PAYLOAD","SITE":"AFWTR","TLE_LINE1":"1 53217U 22084AE  23099.89857584  .00001417  00000-0  11490-3 0  9992","MEAN_MOTION":"15.01265389","COUNTRY_CODE":"US","CLASSIFICATION_TYPE":"U","TLE_LINE2":"2 53217  97.6548 161.9459 0001645 102.9235 257.2173 15.01265389 39562","CENTER_NAME":"EARTH","EPHEMERIS_TYPE":"0"},{"EPOCH":"2023-04-09T16:56:20.181696","SEMIMAJOR_AXIS":"6941.154","RA_OF_ASC_NODE":"161.7638","DECAY_DATE":null,"OBJECT_NAME":"STARLINK-4384","LAUNCH_DATE":"2022-07-22","MEAN_ELEMENT_THEORY":"SGP4","PERIOD":"95.920","FILE":"3884641","MEAN_MOTION_DOT":"0.00000247","TIME_SYSTEM":"UTC","ELEMENT_SET_NO":"999","NORAD_CAT_ID":"53218","GP_ID":"229809587","REV_AT_EPOCH":"4005","MEAN_MOTION_DDOT":"0.0000000000000","INCLINATION":"97.6545","ECCENTRICITY":"0.00018840","BSTAR":"0.00002384700000","ARG_OF_PERICENTER":"104.0669","PERIAPSIS":"561.711","OBJECT_TYPE":"PAYLOAD","SITE":"AFWTR","RCS_SIZE":"LARGE","MEAN_ANOMALY":"256.0765","OBJECT_ID":"2022-084AF","APOAPSIS":"564.327","REF_FRAME":"TEME","CENTER_NAME":"EARTH","EPHEMERIS_TYPE":"0","TLE_LINE1":"1 53218U 22084AF  23099.70578914  .00000247  00000-0  23847-4 0  9990","MEAN_MOTION":"15.01257660","COUNTRY_CODE":"US","CLASSIFICATION_TYPE":"U","TLE_LINE2":"2 53218  97.6545 161.7638 0001884 104.0669 256.0765 15.01257660 40059"},{"ARG_OF_PERICENTER":"110.9522","OBJECT_TYPE":"PAYLOAD","PERIAPSIS":"561.922","SITE":"AFWTR","RCS_SIZE":"LARGE","MEAN_ANOMALY":"249.1871","APOAPSIS":"564.110","OBJECT_ID":"2022-084AG","REF_FRAME":"TEME","CENTER_NAME":"EARTH","EPHEMERIS_TYPE":"0","TLE_LINE1":"1 53219U 22084AG  23099.76133165  .00000054  00000-0  88062-5 0  9999","MEAN_MOTION":"15.01258722","CLASSIFICATION_TYPE":"U","COUNTRY_CODE":"US","TLE_LINE2":"2 53219  97.6551 161.8087 0001576 110.9522 249.1871 15.01258722 39541","EPOCH":"2023-04-09T18:16:19.054560","SEMIMAJOR_AXIS":"6941.151","RA_OF_ASC_NODE":"161.8087","DECAY_DATE":null,"OBJECT_NAME":"STARLINK-4373","LAUNCH_DATE":"2022-07-22","MEAN_ELEMENT_THEORY":"SGP4","PERIOD":"95.920","MEAN_MOTION_DOT":"0.00000054","FILE":"3884641","TIME_SYSTEM":"UTC","ELEMENT_SET_NO":"999","NORAD_CAT_ID":"53219","GP_ID":"229810836","REV_AT_EPOCH":"3954","MEAN_MOTION_DDOT":"0.0000000000000","INCLINATION":"97.6551","ECCENTRICITY":"0.00015760","BSTAR":"0.00000880620000"},{"MEAN_ANOMALY":"255.6142","RCS_SIZE":"LARGE","REF_FRAME":"TEME","OBJECT_ID":"2022-084AH","APOAPSIS":"564.128","PERIAPSIS":"561.893","OBJECT_TYPE":"PAYLOAD","ARG_OF_PERICENTER":"104.5261","SITE":"AFWTR","MEAN_MOTION":"15.01260390","TLE_LINE1":"1 53220U 22084AH  23099.90018951  .00000511  00000-0  44410-4 0  9998","TLE_LINE2":"2 53220  97.6546 161.9480 0001610 104.5261 255.6142 15.01260390 40081","COUNTRY_CODE":"US","CLASSIFICATION_TYPE":"U","CENTER_NAME":"EARTH","EPHEMERIS_TYPE":"0","PERIOD":"95.919","MEAN_ELEMENT_THEORY":"SGP4","ELEMENT_SET_NO":"999","TIME_SYSTEM":"UTC","MEAN_MOTION_DOT":"0.00000511","FILE":"3884641","RA_OF_ASC_NODE":"161.9480","SEMIMAJOR_AXIS":"6941.146","EPOCH":"2023-04-09T21:36:16.373664","LAUNCH_DATE":"2022-07-22","OBJECT_NAME":"STARLINK-4363","DECAY_DATE":null,"BSTAR":"0.00004441000000","REV_AT_EPOCH":"4008","GP_ID":"229810579","NORAD_CAT_ID":"53220","ECCENTRICITY":"0.00016100","MEAN_MOTION_DDOT":"0.0000000000000","INCLINATION":"97.6546"},{"RA_OF_ASC_NODE":"161.9378","SEMIMAJOR_AXIS":"6941.158","EPOCH":"2023-04-09T21:25:36.646464","OBJECT_NAME":"STARLINK-4377","LAUNCH_DATE":"2022-07-22","DECAY_DATE":null,"PERIOD":"95.920","MEAN_ELEMENT_THEORY":"SGP4","ELEMENT_SET_NO":"999","TIME_SYSTEM":"UTC","MEAN_MOTION_DOT":"0.00000253","FILE":"3884641","REV_AT_EPOCH":"3956","GP_ID":"229809843","NORAD_CAT_ID":"53221","ECCENTRICITY":"0.00015720","MEAN_MOTION_DDOT":"0.0000000000000","INCLINATION":"97.6549","BSTAR":"0.00002427600000","PERIAPSIS":"561.932","OBJECT_TYPE":"PAYLOAD","ARG_OF_PERICENTER":"112.7086","SITE":"AFWTR","MEAN_ANOMALY":"247.4304","RCS_SIZE":"LARGE","REF_FRAME":"TEME","OBJECT_ID":"2022-084AJ","APOAPSIS":"564.114","CENTER_NAME":"EARTH","EPHEMERIS_TYPE":"0","MEAN_MOTION":"15.01256489","TLE_LINE1":"1 53221U 22084AJ  23099.89278526  .00000253  00000-0  24276-4 0  9994","TLE_LINE2":"2 53221  97.6549 161.9378 0001572 112.7086 247.4304 15.01256489 39568","COUNTRY_CODE":"US","CLASSIFICATION_TYPE":"U"},{"ECCENTRICITY":"0.00017290","INCLINATION":"97.6550","MEAN_MOTION_DDOT":"0.0000000000000","REV_AT_EPOCH":"3954","GP_ID":"229810088","NORAD_CAT_ID":"53222","BSTAR":"-0.00002709000000","LAUNCH_DATE":"2022-07-22","OBJECT_NAME":"STARLINK-4381","DECAY_DATE":null,"RA_OF_ASC_NODE":"161.8142","SEMIMAJOR_AXIS":"6941.148","EPOCH":"2023-04-09T18:21:38.973024","ELEMENT_SET_NO":"999","TIME_SYSTEM":"UTC","MEAN_MOTION_DOT":"-0.00000407","FILE":"3884641","PERIOD":"95.919","MEAN_ELEMENT_THEORY":"SGP4","EPHEMERIS_TYPE":"0","CENTER_NAME":"EARTH","TLE_LINE2":"2 53222  97.6550 161.8142 0001729 103.0180 257.1237 15.01259751 39547","CLASSIFICATION_TYPE":"U","COUNTRY_CODE":"US","MEAN_MOTION":"15.01259751","TLE_LINE1":"1 53222U 22084AK  23099.76503441 -.00000407  00000-0 -27090-4 0  9998","SITE":"AFWTR","OBJECT_TYPE":"PAYLOAD","PERIAPSIS":"561.812","ARG_OF_PERICENTER":"103.0180","REF_FRAME":"TEME","OBJECT_ID":"2022-084AK","APOAPSIS":"564.213","MEAN_ANOMALY":"257.1237","RCS_SIZE":"LARGE"},{"PERIOD":"95.920","MEAN_ELEMENT_THEORY":"SGP4","TIME_SYSTEM":"UTC","ELEMENT_SET_NO":"999","FILE":"3884641","MEAN_MOTION_DOT":"0.00000210","RA_OF_ASC_NODE":"161.9348","EPOCH":"2023-04-09T21:22:56.548992","SEMIMAJOR_AXIS":"6941.150","OBJECT_NAME":"STARLINK-4354","LAUNCH_DATE":"2022-07-22","DECAY_DATE":null,"BSTAR":"0.00002091100000","REV_AT_EPOCH":"3956","GP_ID":"229810336","NORAD_CAT_ID":"53223","ECCENTRICITY":"0.00012610","INCLINATION":"97.6554","MEAN_MOTION_DDOT":"0.0000000000000","RCS_SIZE":"LARGE","MEAN_ANOMALY":"246.5100","APOAPSIS":"563.891","OBJECT_ID":"2022-084AL","REF_FRAME":"TEME","PERIAPSIS":"562.140","OBJECT_TYPE":"PAYLOAD","ARG_OF_PERICENTER":"113.6257","SITE":"AFWTR","MEAN_MOTION":"15.01258844","TLE_LINE1":"1 53223U 22084AL  23099.89093228  .00000210  00000-0  20911-4 0  9995","TLE_LINE2":"2 53223  97.6554 161.9348 0001261 113.6257 246.5100 15.01258844 39569","COUNTRY_CODE":"US","CLASSIFICATION_TYPE":"U","CENTER_NAME":"EARTH","EPHEMERIS_TYPE":"0"},{"SEMIMAJOR_AXIS":"6941.139","EPOCH":"2023-04-09T21:30:56.481984","RA_OF_ASC_NODE":"161.9428","DECAY_DATE":null,"LAUNCH_DATE":"2022-07-22","OBJECT_NAME":"STARLINK-4356","MEAN_ELEMENT_THEORY":"SGP4","PERIOD":"95.919","MEAN_MOTION_DOT":"0.00000014","FILE":"3884641","ELEMENT_SET_NO":"999","TIME_SYSTEM":"UTC","NORAD_CAT_ID":"53224","GP_ID":"229811080","REV_AT_EPOCH":"3956","INCLINATION":"97.6545","MEAN_MOTION_DDOT":"0.0000000000000","ECCENTRICITY":"0.00016470","BSTAR":"0.00000566500000","ARG_OF_PERICENTER":"102.6682","PERIAPSIS":"561.861","OBJECT_TYPE":"PAYLOAD","SITE":"AFWTR","MEAN_ANOMALY":"257.4726","RCS_SIZE":"LARGE","REF_FRAME":"TEME","APOAPSIS":"564.147","OBJECT_ID":"2022-084AM","CENTER_NAME":"EARTH","EPHEMERIS_TYPE":"0","TLE_LINE1":"1 53224U 22084AM  23099.89648706  .00000014  00000-0  56650-5 0  9995","MEAN_MOTION":"15.01262525","COUNTRY_CODE":"US","CLASSIFICATION_TYPE":"U","TLE_LINE2":"2 53224  97.6545 161.9428 0001647 102.6682 257.4726 15.01262525 39563"},{"SITE":"AFWTR","PERIAPSIS":"562.557","OBJECT_TYPE":"PAYLOAD","ARG_OF_PERICENTER":"150.1119","REF_FRAME":"TEME","OBJECT_ID":"2022-084AN","APOAPSIS":"563.478","MEAN_ANOMALY":"210.0144","RCS_SIZE":"LARGE","EPHEMERIS_TYPE":"0","CENTER_NAME":"EARTH","TLE_LINE2":"2 53225  97.6554 161.9308 0000663 150.1119 210.0144 15.01258123 39569","CLASSIFICATION_TYPE":"U","COUNTRY_CODE":"US","MEAN_MOTION":"15.01258123","TLE_LINE1":"1 53225U 22084AN  23099.88722618  .00000480  00000-0  41937-4 0  9998","LAUNCH_DATE":"2022-07-22","OBJECT_NAME":"STARLINK-4358","DECAY_DATE":null,"RA_OF_ASC_NODE":"161.9308","SEMIMAJOR_AXIS":"6941.153","EPOCH":"2023-04-09T21:17:36.341952","ELEMENT_SET_NO":"999","TIME_SYSTEM":"UTC","MEAN_MOTION_DOT":"0.00000480","FILE":"3884641","PERIOD":"95.920","MEAN_ELEMENT_THEORY":"SGP4","ECCENTRICITY":"0.00006630","INCLINATION":"97.6554","MEAN_MOTION_DDOT":"0.0000000000000","REV_AT_EPOCH":"3956","GP_ID":"229809343","NORAD_CAT_ID":"53225","BSTAR":"0.00004193700000"},{"DECAY_DATE":null,"LAUNCH_DATE":"2022-07-22","OBJECT_NAME":"STARLINK-4359","EPOCH":"2023-04-09T21:23:17.562336","SEMIMAJOR_AXIS":"6941.151","RA_OF_ASC_NODE":"161.9355","MEAN_MOTION_DOT":"0.00000193","FILE":"3884641","TIME_SYSTEM":"UTC","ELEMENT_SET_NO":"999","MEAN_ELEMENT_THEORY":"SGP4","PERIOD":"95.920","MEAN_MOTION_DDOT":"0.0000000000000","INCLINATION":"97.6552","ECCENTRICITY":"0.00014370","NORAD_CAT_ID":"53226","GP_ID":"229809588","REV_AT_EPOCH":"3956","BSTAR":"0.00001963700000","SITE":"AFWTR","ARG_OF_PERICENTER":"113.8885","OBJECT_TYPE":"PAYLOAD","PERIAPSIS":"562.019","APOAPSIS":"564.014","OBJECT_ID":"2022-084AP","REF_FRAME":"TEME","RCS_SIZE":"LARGE","MEAN_ANOMALY":"246.2490","EPHEMERIS_TYPE":"0","CENTER_NAME":"EARTH","CLASSIFICATION_TYPE":"U","COUNTRY_CODE":"US","TLE_LINE2":"2 53226  97.6552 161.9355 0001437 113.8885 246.2490 15.01258627 39560","TLE_LINE1":"1 53226U 22084AP  23099.89117549  .00000193  00000-0  19637-4 0  9994","MEAN_MOTION":"15.01258627"}];
